NAVSTAR 77 (USA 289)    
1 43873U 18109A   24194.03647025  .00000003  00000+0  00000+0 0  9992
2 43873  55.3058 120.0466 0029286 194.4208 176.8301  2.00557303 40934
